[{"OBJECT_NAME":"ONEWEB-0311","OBJECT_ID":"2021-075Y","EPOCH":"2025-11-24T10:44:49.263360","MEAN_MOTION":13.1765051,"ECCENTRICITY":0.0001544,"INCLINATION":87.9133,"RA_OF_ASC_NODE":46.5652,"ARG_OF_PERICENTER":111.6041,"MEAN_ANOMALY":248.5255,"EPHEMERIS_TYPE":0,"CLASSIFICATION_TYPE":"U","NORAD_CAT_ID":49097,"ELEMENT_SET_NO":999,"REV_AT_EPOCH":20666,"BSTAR":0.00019617,"MEAN_MOTION_DOT":8.9e-7,"MEAN_MOTION_DDOT":0},{"OBJECT_NAME":"ONEWEB-0312","OBJECT_ID":"2021-075Z","EPOCH":"2025-11-24T11:06:42.018048","MEAN_MOTION":13.17648331,"ECCENTRICITY":0.0001526,"INCLINATION":87.9129,"RA_OF_ASC_NODE":46.5892,"ARG_OF_PERICENTER":100.0376,"MEAN_ANOMALY":260.0928,"EPHEMERIS_TYPE":0,"CLASSIFICATION_TYPE":"U","NORAD_CAT_ID":49098,"ELEMENT_SET_NO":999,"REV_AT_EPOCH":20664,"BSTAR":0.00040039,"MEAN_MOTION_DOT":1.68e-6,"MEAN_MOTION_DDOT":0},{"OBJECT_NAME":"ONEWEB-0313","OBJECT_ID":"2021-075AA","EPOCH":"2025-11-24T05:45:46.857024","MEAN_MOTION":13.1765039,"ECCENTRICITY":0.0001677,"INCLINATION":87.9123,"RA_OF_ASC_NODE":46.6422,"ARG_OF_PERICENTER":104.0791,"MEAN_ANOMALY":256.0527,"EPHEMERIS_TYPE":0,"CLASSIFICATION_TYPE":"U","NORAD_CAT_ID":49099,"ELEMENT_SET_NO":999,"REV_AT_EPOCH":20660,"BSTAR":0.00038365,"MEAN_MOTION_DOT":1.62e-6,"MEAN_MOTION_DDOT":0},{"OBJECT_NAME":"ONEWEB-0314","OBJECT_ID":"2021-075AB","EPOCH":"2025-11-24T06:46:41.360160","MEAN_MOTION":13.17647822,"ECCENTRICITY":0.0001447,"INCLINATION":87.9135,"RA_OF_ASC_NODE":46.5833,"ARG_OF_PERICENTER":100.5875,"MEAN_ANOMALY":259.5419,"EPHEMERIS_TYPE":0,"CLASSIFICATION_TYPE":"U","NORAD_CAT_ID":49100,"ELEMENT_SET_NO":999,"REV_AT_EPOCH":20658,"BSTAR":0.00041165,"MEAN_MOTION_DOT":1.73e-6,"MEAN_MOTION_DDOT":0},{"OBJECT_NAME":"ONEWEB-0315","OBJECT_ID":"2021-075AC","EPOCH":"2025-11-24T10:28:22.736064","MEAN_MOTION":13.12442755,"ECCENTRICITY":0.000157,"INCLINATION":87.8955,"RA_OF_ASC_NODE":31.316,"ARG_OF_PERICENTER":111.2886,"MEAN_ANOMALY":248.841,"EPHEMERIS_TYPE":0,"CLASSIFICATION_TYPE":"U","NORAD_CAT_ID":49101,"ELEMENT_SET_NO":999,"REV_AT_EPOCH":20831,"BSTAR":-0.0010213,"MEAN_MOTION_DOT":-3.55e-6,"MEAN_MOTION_DDOT":0},{"OBJECT_NAME":"ONEWEB-0316","OBJECT_ID":"2021-075AD","EPOCH":"2025-11-24T03:22:24.151584","MEAN_MOTION":13.18684627,"ECCENTRICITY":0.0001811,"INCLINATION":87.92,"RA_OF_ASC_NODE":16.1941,"ARG_OF_PERICENTER":102.6428,"MEAN_ANOMALY":257.4907,"EPHEMERIS_TYPE":0,"CLASSIFICATION_TYPE":"U","NORAD_CAT_ID":49102,"ELEMENT_SET_NO":999,"REV_AT_EPOCH":21018,"BSTAR":0.00013872,"MEAN_MOTION_DOT":6.8e-7,"MEAN_MOTION_DDOT":0},{"OBJECT_NAME":"ONEWEB-0317","OBJECT_ID":"2021-075AE","EPOCH":"2025-11-24T04:49:41.054304","MEAN_MOTION":13.12442526,"ECCENTRICITY":0.0002345,"INCLINATION":87.8961,"RA_OF_ASC_NODE":31.38,"ARG_OF_PERICENTER":86.2066,"MEAN_ANOMALY":273.933,"EPHEMERIS_TYPE":0,"CLASSIFICATION_TYPE":"U","NORAD_CAT_ID":49103,"ELEMENT_SET_NO":999,"REV_AT_EPOCH":20830,"BSTAR":-0.00066218,"MEAN_MOTION_DOT":-2.25e-6,"MEAN_MOTION_DDOT":0},{"OBJECT_NAME":"ONEWEB-0318","OBJECT_ID":"2021-075AF","EPOCH":"2025-11-24T10:34:41.783232","MEAN_MOTION":13.18684954,"ECCENTRICITY":0.0001573,"INCLINATION":87.9201,"RA_OF_ASC_NODE":16.1216,"ARG_OF_PERICENTER":101.6134,"MEAN_ANOMALY":258.5175,"EPHEMERIS_TYPE":0,"CLASSIFICATION_TYPE":"U","NORAD_CAT_ID":49104,"ELEMENT_SET_NO":999,"REV_AT_EPOCH":21018,"BSTAR":0.00021582,"MEAN_MOTION_DOT":9.8e-7,"MEAN_MOTION_DDOT":0},{"OBJECT_NAME":"ONEWEB-0319","OBJECT_ID":"2021-075AG","EPOCH":"2025-11-24T10:47:15.461664","MEAN_MOTION":13.17648183,"ECCENTRICITY":0.0001453,"INCLINATION":87.9126,"RA_OF_ASC_NODE":46.5862,"ARG_OF_PERICENTER":111.0355,"MEAN_ANOMALY":249.0932,"EPHEMERIS_TYPE":0,"CLASSIFICATION_TYPE":"U","NORAD_CAT_ID":49105,"ELEMENT_SET_NO":999,"REV_AT_EPOCH":20664,"BSTAR":0.00015725,"MEAN_MOTION_DOT":7.4e-7,"MEAN_MOTION_DDOT":0},{"OBJECT_NAME":"ONEWEB-0323","OBJECT_ID":"2021-075AH","EPOCH":"2025-11-24T10:05:01.400640","MEAN_MOTION":13.12441625,"ECCENTRICITY":0.0001162,"INCLINATION":87.8962,"RA_OF_ASC_NODE":31.3234,"ARG_OF_PERICENTER":111.9927,"MEAN_ANOMALY":248.1325,"EPHEMERIS_TYPE":0,"CLASSIFICATION_TYPE":"U","NORAD_CAT_ID":49106,"ELEMENT_SET_NO":999,"REV_AT_EPOCH":20769,"BSTAR":5.1357e-5,"MEAN_MOTION_DOT":3.1e-7,"MEAN_MOTION_DDOT":0},{"OBJECT_NAME":"ONEWEB-0329","OBJECT_ID":"2021-075AJ","EPOCH":"2025-11-24T10:59:25.306656","MEAN_MOTION":13.17648765,"ECCENTRICITY":0.0001631,"INCLINATION":87.9126,"RA_OF_ASC_NODE":46.5869,"ARG_OF_PERICENTER":100.7386,"MEAN_ANOMALY":259.3929,"EPHEMERIS_TYPE":0,"CLASSIFICATION_TYPE":"U","NORAD_CAT_ID":49107,"ELEMENT_SET_NO":999,"REV_AT_EPOCH":20662,"BSTAR":0.00017936,"MEAN_MOTION_DOT":8.3e-7,"MEAN_MOTION_DDOT":0},{"OBJECT_NAME":"ONEWEB-0330","OBJECT_ID":"2021-075AK","EPOCH":"2025-11-24T11:00:37.110240","MEAN_MOTION":13.1764755,"ECCENTRICITY":0.0001653,"INCLINATION":87.9129,"RA_OF_ASC_NODE":46.5921,"ARG_OF_PERICENTER":95.2731,"MEAN_ANOMALY":264.8589,"EPHEMERIS_TYPE":0,"CLASSIFICATION_TYPE":"U","NORAD_CAT_ID":49108,"ELEMENT_SET_NO":999,"REV_AT_EPOCH":20666,"BSTAR":8.849e-6,"MEAN_MOTION_DOT":1.6e-7,"MEAN_MOTION_DDOT":0},{"OBJECT_NAME":"ONEWEB-0292","OBJECT_ID":"2021-083A","EPOCH":"2025-11-24T04:07:11.424000","MEAN_MOTION":13.13469299,"ECCENTRICITY":0.0001685,"INCLINATION":87.8987,"RA_OF_ASC_NODE":1.0117,"ARG_OF_PERICENTER":99.6478,"MEAN_ANOMALY":260.4842,"EPHEMERIS_TYPE":0,"CLASSIFICATION_TYPE":"U","NORAD_CAT_ID":49186,"ELEMENT_SET_NO":999,"REV_AT_EPOCH":20401,"BSTAR":0.00072457,"MEAN_MOTION_DOT":2.77e-6,"MEAN_MOTION_DDOT":0},{"OBJECT_NAME":"ONEWEB-0303","OBJECT_ID":"2021-083B","EPOCH":"2025-11-24T05:02:09.809664","MEAN_MOTION":13.18684702,"ECCENTRICITY":0.0001718,"INCLINATION":87.9203,"RA_OF_ASC_NODE":16.1687,"ARG_OF_PERICENTER":102.9553,"MEAN_ANOMALY":257.1771,"EPHEMERIS_TYPE":0,"CLASSIFICATION_TYPE":"U","NORAD_CAT_ID":49187,"ELEMENT_SET_NO":999,"REV_AT_EPOCH":20296,"BSTAR":0.00017578,"MEAN_MOTION_DOT":8.2e-7,"MEAN_MOTION_DDOT":0},{"OBJECT_NAME":"ONEWEB-0306","OBJECT_ID":"2021-083C","EPOCH":"2025-11-24T10:15:42.195744","MEAN_MOTION":13.18684566,"ECCENTRICITY":0.0002009,"INCLINATION":87.9201,"RA_OF_ASC_NODE":16.1102,"ARG_OF_PERICENTER":93.1632,"MEAN_ANOMALY":266.973,"EPHEMERIS_TYPE":0,"CLASSIFICATION_TYPE":"U","NORAD_CAT_ID":49188,"ELEMENT_SET_NO":999,"REV_AT_EPOCH":20303,"BSTAR":9.4881e-5,"MEAN_MOTION_DOT":5.0e-7,"MEAN_MOTION_DDOT":0},{"OBJECT_NAME":"ONEWEB-0307","OBJECT_ID":"2021-083D","EPOCH":"2025-11-24T03:58:38.635680","MEAN_MOTION":13.13468786,"ECCENTRICITY":0.0001835,"INCLINATION":87.8983,"RA_OF_ASC_NODE":1.005,"ARG_OF_PERICENTER":98.0107,"MEAN_ANOMALY":262.1231,"EPHEMERIS_TYPE":0,"CLASSIFICATION_TYPE":"U","NORAD_CAT_ID":49189,"ELEMENT_SET_NO":999,"REV_AT_EPOCH":20401,"BSTAR":0.00096118,"MEAN_MOTION_DOT":3.64e-6,"MEAN_MOTION_DDOT":0},{"OBJECT_NAME":"ONEWEB-0320","OBJECT_ID":"2021-083E","EPOCH":"2025-11-24T10:26:23.167104","MEAN_MOTION":13.18698073,"ECCENTRICITY":0.0002814,"INCLINATION":87.919,"RA_OF_ASC_NODE":16.1386,"ARG_OF_PERICENTER":99.2274,"MEAN_ANOMALY":260.9176,"EPHEMERIS_TYPE":0,"CLASSIFICATION_TYPE":"U","NORAD_CAT_ID":49190,"ELEMENT_SET_NO":999,"REV_AT_EPOCH":20299,"BSTAR":-0.0072184,"MEAN_MOTION_DOT":-2.833e-5,"MEAN_MOTION_DDOT":0}]
