ONEWEB-0311             
1 49097U 21075Y   25328.44779240  .00000089  00000+0  19617-3 0  9994
2 49097  87.9133  46.5652 0001544 111.6041 248.5255 13.17650510206668
ONEWEB-0312             
1 49098U 21075Z   25328.46298632  .00000168  00000+0  40039-3 0  9998
2 49098  87.9129  46.5892 0001526 100.0376 260.0928 13.17648331206645
ONEWEB-0313             
1 49099U 21075AA  25328.24012566  .00000162  00000+0  38365-3 0  9998
2 49099  87.9123  46.6422 0001677 104.0791 256.0527 13.17650390206606
ONEWEB-0314             
1 49100U 21075AB  25328.28242315  .00000173  00000+0  41165-3 0  9996
2 49100  87.9135  46.5833 0001447 100.5875 259.5419 13.17647822206587
ONEWEB-0315             
1 49101U 21075AC  25328.43637426 -.00000355  00000+0 -10213-2 0  9998
2 49101  87.8955  31.3160 0001570 111.2886 248.8410 13.12442755208318
ONEWEB-0316             
1 49102U 21075AD  25328.14055731  .00000068  00000+0  13872-3 0  9994
2 49102  87.9200  16.1941 0001811 102.6428 257.4907 13.18684627210182
ONEWEB-0317             
1 49103U 21075AE  25328.20116961 -.00000225  00000+0 -66218-3 0  9994
2 49103  87.8961  31.3800 0002345  86.2066 273.9330 13.12442526208305
ONEWEB-0318             
1 49104U 21075AF  25328.44076138  .00000098  00000+0  21582-3 0  9993
2 49104  87.9201  16.1216 0001573 101.6134 258.5175 13.18684954210180
ONEWEB-0319             
1 49105U 21075AG  25328.44948451  .00000074  00000+0  15725-3 0  9996
2 49105  87.9126  46.5862 0001453 111.0355 249.0932 13.17648183206643
ONEWEB-0323             
1 49106U 21075AH  25328.42015510  .00000031  00000+0  51357-4 0  9991
2 49106  87.8962  31.3234 0001162 111.9927 248.1325 13.12441625207696
ONEWEB-0329             
1 49107U 21075AJ  25328.45793179  .00000083  00000+0  17936-3 0  9990
2 49107  87.9126  46.5869 0001631 100.7386 259.3929 13.17648765206623
ONEWEB-0330             
1 49108U 21075AK  25328.45876285  .00000016  00000+0  88490-5 0  9992
2 49108  87.9129  46.5921 0001653  95.2731 264.8589 13.17647550206660
ONEWEB-0292             
1 49186U 21083A   25328.17166000  .00000277  00000+0  72457-3 0  9996
2 49186  87.8987   1.0117 0001685  99.6478 260.4842 13.13469299204010
ONEWEB-0303             
1 49187U 21083B   25328.20983576  .00000082  00000+0  17578-3 0  9993
2 49187  87.9203  16.1687 0001718 102.9553 257.1771 13.18684702202960
ONEWEB-0306             
1 49188U 21083C   25328.42757171  .00000050  00000+0  94881-4 0  9996
2 49188  87.9201  16.1102 0002009  93.1632 266.9730 13.18684566203034
ONEWEB-0307             
1 49189U 21083D   25328.16572495  .00000364  00000+0  96118-3 0  9994
2 49189  87.8983   1.0050 0001835  98.0107 262.1231 13.13468786204015
ONEWEB-0320             
1 49190U 21083E   25328.43499036 -.00002833  00000+0 -72184-2 0  9996
2 49190  87.9190  16.1386 0002814  99.2274 260.9176 13.18698073202991
